NORAD_CAT_ID,OBJECT_NAME,OBJECT_TYPE,EPOCH,MEAN_MOTION,ECCENTRICITY,INCLINATION,RA_OF_ASC_NODE,ARG_OF_PERICENTER,MEAN_ANOMALY,BSTAR,MEAN_MOTION_DOT,MEAN_MOTION_DDOT,TLE_LINE0,TLE_LINE1,TLE_LINE2,SEMIMAJOR_AXIS,PERIOD,APOGEE,PERIGEE,DECAYED
53537.0,STARLINK-4120,PAYLOAD,2024-02-06 21:38:45,15.08845043,0.0001325,53.2173,253.8918,96.6218,263.4925,6.9788e-05,8.23e-06,0.0,0 STARLINK-4120,1 53537U 22101L   24037.90191360  .00000823  00000-0  69788-4 0  9999,2 53537  53.2173 253.8918 0001325  96.6218 263.4925 15.08845043 81160,6917.865,95.437,540.647,538.813,0.0
53537.0,STARLINK-4120,PAYLOAD,2024-02-07 00:49:31,15.08845797,0.0001331,53.2173,253.2969,97.3028,262.8116,7.5536e-05,9.15e-06,0.0,0 STARLINK-4120,1 53537U 22101L   24038.03439264  .00000915  00000-0  75536-4 0  9992,2 53537  53.2173 253.2969 0001331  97.3028 262.8116 15.08845797 81187,6917.863,95.437,540.648,538.807,0.0
53537.0,STARLINK-4120,PAYLOAD,2024-02-07 19:54:10,15.08819236,0.0001694,53.2175,249.724,55.4564,304.6588,0.00024058,3.541e-05,0.0,0 STARLINK-4120,1 53537U 22101L   24038.82928792  .00003541  00000-0  24058-3 0  9998,2 53537  53.2175 249.7240 0001694  55.4564 304.6588 15.08819236 81304,6917.944,95.439,540.981,538.637,0.0
53537.0,STARLINK-4120,PAYLOAD,2024-02-07 21:29:33,15.08799738,0.0001779,53.2177,249.4267,61.4811,298.636,0.00051774,7.952e-05,0.0,0 STARLINK-4120,1 53537U 22101L   24038.89553168  .00007952  00000-0  51774-3 0  9991,2 53537  53.2177 249.4267 0001779  61.4811 298.6360 15.08799738 81313,6918.003,95.44,541.099,538.638,0.0
53537.0,STARLINK-4120,PAYLOAD,2024-02-08 07:01:52,15.08836045,0.0001169,53.2167,247.6436,93.7,266.4125,3.8562e-05,3.26e-06,0.0,0 STARLINK-4120,1 53537U 22101L   24039.29296347  .00000326  00000-0  38562-4 0  9998,2 53537  53.2167 247.6436 0001169  93.7000 266.4125 15.08836045 81372,6917.892,95.438,540.566,538.949,0.0
53537.0,STARLINK-4120,PAYLOAD,2024-02-08 21:20:20,15.08842365,0.0001229,53.2165,244.9678,96.6633,263.4499,8.902e-06,-1.46e-06,0.0,0 STARLINK-4120,1 53537U 22101L   24039.88912196 -.00000146  00000-0  89020-5 0  9997,2 53537  53.2165 244.9678 0001229  96.6633 263.4499 15.08842365 81462,6917.873,95.437,540.588,538.888,0.0
53537.0,STARLINK-4120,PAYLOAD,2024-02-09 13:14:11,15.08841485,0.0001235,53.2163,241.9968,91.1604,268.9529,0.00013395,1.845e-05,0.0,0 STARLINK-4120,1 53537U 22101L   24040.55151965  .00001845  00000-0  13395-3 0  9998,2 53537  53.2163 241.9968 0001235  91.1604 268.9529 15.08841485 81561,6917.876,95.437,540.595,538.886,0.0
53537.0,STARLINK-4120,PAYLOAD,2024-02-09 19:35:43,15.08847224,0.0001233,53.216,240.8092,88.5901,271.5232,0.00013909,1.927e-05,0.0,0 STARLINK-4120,1 53537U 22101L   24040.81647581  .00001927  00000-0  13909-3 0  9993,2 53537  53.2160 240.8092 0001233  88.5901 271.5232 15.08847224 81605,6917.858,95.437,540.576,538.87,0.0
53537.0,STARLINK-4120,PAYLOAD,2024-02-10 19:26:30,15.08844315,0.0001185,53.2153,236.3498,84.9277,275.185,5.6945e-05,6.19e-06,0.0,0 STARLINK-4120,1 53537U 22101L   24041.81007986  .00000619  00000-0  56945-4 0  9998,2 53537  53.2153 236.3498 0001185  84.9277 275.1850 15.08844315 81759,6917.867,95.437,540.552,538.912,0.0
53537.0,STARLINK-4120,PAYLOAD,2024-02-10 22:37:16,15.08846506,0.0001152,53.2152,235.7542,90.4844,269.628,7.2368e-05,8.64e-06,0.0,0 STARLINK-4120,1 53537U 22101L   24041.94255716  .00000864  00000-0  72368-4 0  9997,2 53537  53.2152 235.7542 0001152  90.4844 269.6280 15.08846506 81778,6917.861,95.437,540.522,538.929,0.0
53537.0,STARLINK-4120,PAYLOAD,2024-02-11 19:17:20,15.08746104,0.0001816,53.2165,231.885,101.014,259.1056,0.0012884,0.00020224,0.0,0 STARLINK-4120,1 53537U 22101L   24042.80370654  .00020224  00000-0  12884-2 0  9999,2 53537  53.2165 231.8850 0001816 101.0140 259.1056 15.08746104 81909,6918.167,95.443,541.289,538.776,0.0
53537.0,STARLINK-4120,PAYLOAD,2024-02-12 12:46:32,15.08838096,0.0001373,53.2168,228.6126,109.8673,250.2467,6.8989e-05,8.1e-06,0.0,0 STARLINK-4120,1 53537U 22101L   24043.53232098  .00000810  00000-0  68989-4 0  9997,2 53537  53.2168 228.6126 0001373 109.8673 250.2467 15.08838096 82010,6917.886,95.438,540.701,538.801,0.0
53537.0,STARLINK-4120,PAYLOAD,2024-02-12 19:08:04,15.08841966,0.0001351,53.2167,227.4238,106.2052,253.9089,9.559e-05,1.234e-05,0.0,0 STARLINK-4120,1 53537U 22101L   24043.79727828  .00001234  00000-0  95590-4 0  9994,2 53537  53.2167 227.4238 0001351 106.2052 253.9089 15.08841966 82052,6917.874,95.437,540.674,538.805,0.0
53537.0,STARLINK-4120,PAYLOAD,2024-02-13 12:37:19,15.08836334,0.0001347,53.2171,224.157,97.481,262.6336,6.2105e-05,7.01e-06,0.0,0 STARLINK-4120,1 53537U 22101L   24044.52592518  .00000701  00000-0  62105-4 0  9996,2 53537  53.2171 224.1570 0001347  97.4810 262.6336 15.08836334 82165,6917.892,95.438,540.688,538.825,0.0
53537.0,STARLINK-4120,PAYLOAD,2024-02-13 22:09:38,15.08844512,0.0001254,53.2166,222.3721,92.8652,267.2484,0.00010855,1.44e-05,0.0,0 STARLINK-4120,1 53537U 22101L   24044.92335967  .00001440  00000-0  10855-3 0  9998,2 53537  53.2166 222.3721 0001254  92.8652 267.2484 15.08844512 82226,6917.867,95.437,540.599,538.864,0.0
53537.0,STARLINK-4120,PAYLOAD,2024-02-14 12:28:07,15.08830644,0.000149,53.2176,219.6975,97.4983,262.6179,-3.0624e-05,-7.75e-06,0.0,0 STARLINK-4120,1 53537U 22101L   24045.51953456 -.00000775  00000-0 -30624-4 0  9992,2 53537  53.2176 219.6975 0001490  97.4983 262.6179 15.08830644 82318,6917.909,95.438,540.805,538.743,0.0
53537.0,STARLINK-4120,PAYLOAD,2024-02-14 20:25:03,15.08832445,0.0001471,53.218,218.2114,97.9295,262.1864,-1.4088e-05,-5.12e-06,0.0,0 STARLINK-4120,1 53537U 22101L   24045.85073485 -.00000512  00000-0 -14088-4 0  9999,2 53537  53.2180 218.2114 0001471  97.9295 262.1864 15.08832445 82365,6917.903,95.438,540.786,538.751,0.0
53537.0,STARLINK-4120,PAYLOAD,2024-02-15 10:43:31,15.08837609,0.0001371,53.2181,215.5336,90.0933,270.0216,4.3645e-05,4.07e-06,0.0,0 STARLINK-4120,1 53537U 22101L   24046.44689293  .00000407  00000-0  43645-4 0  9997,2 53537  53.2181 215.5336 0001371  90.0933 270.0216 15.08837609 82450,6917.888,95.438,540.701,538.804,0.0
53537.0,STARLINK-4120,PAYLOAD,2024-02-15 18:40:26,15.088418,0.0001347,53.2177,214.0471,90.7819,269.3327,8.3047e-05,1.034e-05,0.0,0 STARLINK-4120,1 53537U 22101L   24046.77809003  .00001034  00000-0  83047-4 0  9993,2 53537  53.2177 214.0471 0001347  90.7819 269.3327 15.08841800 82500,6917.875,95.437,540.672,538.808,0.0
53537.0,STARLINK-4120,PAYLOAD,2024-02-16 04:12:45,15.08844009,0.0001374,53.2179,212.2619,84.5461,275.5687,8.6618e-05,1.091e-05,0.0,0 STARLINK-4120,1 53537U 22101L   24047.17552872  .00001091  00000-0  86618-4 0  9997,2 53537  53.2179 212.2619 0001374  84.5461 275.5687 15.08844009 82568,6917.868,95.437,540.684,538.783,0.0
53537.0,STARLINK-4120,PAYLOAD,2024-02-16 10:34:17,15.08852897,0.000135,53.2173,211.0719,84.344,275.7706,-3.1857e-05,-7.95e-06,0.0,0 STARLINK-4120,1 53537U 22101L   24047.44048358 -.00000795  00000-0 -31857-4 0  9993,2 53537  53.2173 211.0719 0001350  84.3440 275.7706 15.08852897 82602,6917.841,95.437,540.64,538.772,0.0
53537.0,STARLINK-4120,PAYLOAD,2024-02-16 18:31:13,15.08847959,0.0001354,53.2163,209.5852,81.5168,278.5977,0.00026851,3.989e-05,0.0,0 STARLINK-4120,1 53537U 22101L   24047.77168776  .00003989  00000-0  26851-3 0  9999,2 53537  53.2163 209.5852 0001354  81.5168 278.5977 15.08847959 82650,6917.856,95.437,540.658,538.784,0.0
53537.0,STARLINK-4120,PAYLOAD,2024-02-17 10:25:05,15.0884421,0.0001324,53.2162,206.6118,87.5625,272.5518,0.00011232,1.5e-05,0.0,0 STARLINK-4120,1 53537U 22101L   24048.43408884  .00001500  00000-0  11232-3 0  9994,2 53537  53.2162 206.6118 0001324  87.5625 272.5518 15.08844210 82756,6917.868,95.437,540.648,538.817,0.0
53537.0,STARLINK-4120,PAYLOAD,2024-02-17 16:46:37,15.0884456,0.0001288,53.2162,205.4221,89.2214,270.8925,0.00010103,1.321e-05,0.0,0 STARLINK-4120,1 53537U 22101L   24048.69904778  .00001321  00000-0  10103-3 0  9992,2 53537  53.2162 205.4221 0001288  89.2214 270.8925 15.08844560 82795,6917.866,95.437,540.622,538.84,0.0
53537.0,STARLINK-4120,PAYLOAD,2024-02-18 10:15:52,15.08838911,0.0001308,53.2161,202.1502,95.1283,264.9859,2.7048e-05,1.43e-06,0.0,0 STARLINK-4120,1 53537U 22101L   24049.42768915  .00000143  00000-0  27048-4 0  9993,2 53537  53.2161 202.1502 0001308  95.1283 264.9859 15.08838911 82901,6917.884,95.438,540.654,538.844,0.0
53537.0,STARLINK-4120,PAYLOAD,2024-02-18 15:02:01,15.0884217,0.0001323,53.2173,201.2593,92.1631,267.9512,4.2514e-05,3.89e-06,0.0,0 STARLINK-4120,1 53537U 22101L   24049.62640811  .00000389  00000-0  42514-4 0  9996,2 53537  53.2173 201.2593 0001323  92.1631 267.9512 15.08842170 82939,6917.874,95.437,540.654,538.824,0.0
53537.0,STARLINK-4120,PAYLOAD,2024-02-18 19:48:10,15.08851227,0.0001576,53.2177,200.3644,113.5965,246.5193,2.3878e-05,9.2e-07,0.0,0 STARLINK-4120,1 53537U 22101L   24049.82512077  .00000092  00000-0  23878-4 0  9993,2 53537  53.2177 200.3644 0001576 113.5965 246.5193 15.08851227 82962,6917.846,95.437,540.801,538.621,0.0
53537.0,STARLINK-4120,PAYLOAD,2024-02-19 14:52:49,15.08830747,0.0001432,53.217,196.7949,112.9637,247.1506,6.5581e-05,7.56e-06,0.0,0 STARLINK-4120,1 53537U 22101L   24050.62001350  .00000756  00000-0  65581-4 0  9994,2 53537  53.2170 196.7949 0001432 112.9637 247.1506 15.08830747 83084,6917.909,95.438,540.764,538.783,0.0
53537.0,STARLINK-4120,PAYLOAD,2024-02-19 16:28:12,15.08837613,0.0001345,53.2163,196.5005,95.5371,264.5774,4.4802e-05,4.25e-06,0.0,0 STARLINK-4120,1 53537U 22101L   24050.68625116  .00000425  00000-0  44802-4 0  9998,2 53537  53.2163 196.5005 0001345  95.5371 264.5774 15.08837613 83091,6917.888,95.438,540.683,538.822,0.0
53537.0,STARLINK-4120,PAYLOAD,2024-02-20 14:43:36,15.08838587,0.000155,53.2166,192.333,100.0137,260.103,5.5666e-05,5.98e-06,0.0,0 STARLINK-4120,1 53537U 22101L   24051.61361162  .00000598  00000-0  55666-4 0  9991,2 53537  53.2166 192.3330 0001550 100.0137 260.1030 15.08838587 83233,6917.885,95.438,540.822,538.677,0.0
